{
  "norad_id": 65857,
  "name": "STARLINK-35489",
  "history": [
    {
      "epoch": "2026-03-28T17:10:09.072192Z",
      "apogee_km": 475.9585529022215,
      "perigee_km": 474.3459739385389,
      "latitude_deg": -8.094133460920476e-06,
      "longitude_deg": 122.48104387183574,
      "height_km": 475.98609969395443,
      "semi_major_axis_km": 6853.28926342038,
      "eccentricity": 0.00011765,
      "inclination_deg": 53.1601,
      "raan_deg": 206.1507,
      "arg_perigee_deg": 85.4193,
      "mean_anomaly_deg": 274.6942,
      "mean_motion_rev_day": 15.30221035
    },
    {
      "epoch": "2026-03-29T04:00:01.999584Z",
      "apogee_km": 476.27726451072976,
      "perigee_km": 474.4638264142004,
      "latitude_deg": -25.601931785698582,
      "longitude_deg": -63.44731003264218,
      "height_km": 483.26354513142536,
      "semi_major_axis_km": 6853.507545462465,
      "eccentricity": 0.0001323,
      "inclination_deg": 53.159,
      "raan_deg": 204.0544,
      "arg_perigee_deg": 83.985,
      "mean_anomaly_deg": 243.6142,
      "mean_motion_rev_day": 15.3014793
    },
    {
      "epoch": "2026-03-30T00:31:13.286784Z",
      "apogee_km": 475.72961760606177,
      "perigee_km": 474.63719833303185,
      "latitude_deg": 2.4042146321765252e-05,
      "longitude_deg": 4.8568606076166825,
      "height_km": 476.0363913269699,
      "semi_major_axis_km": 6853.320407969547,
      "eccentricity": 7.97e-05,
      "inclination_deg": 53.1582,
      "raan_deg": 200.0816,
      "arg_perigee_deg": 85.2178,
      "mean_anomaly_deg": 274.8914,
      "mean_motion_rev_day": 15.30210604
    }
  ]
}